OBJECT C                
1 57582U 23117C   25223.26407039  .00007754  00000+0  29676-3 0  9991
2 57582  97.4418 297.9790 0007220 258.5748 101.4680 15.26819897111071
